[{"OBJECT_NAME":"STARLINK-31721","OBJECT_ID":"2024-074C","EPOCH":"2026-03-09T03:25:01.802208","MEAN_MOTION":15.27570564,"ECCENTRICITY":9.752e-5,"INCLINATION":43.0039,"RA_OF_ASC_NODE":346.3569,"ARG_OF_PERICENTER":263.6661,"MEAN_ANOMALY":96.4079,"EPHEMERIS_TYPE":0,"CLASSIFICATION_TYPE":"U","NORAD_CAT_ID":59536,"ELEMENT_SET_NO":999,"REV_AT_EPOCH":10593,"BSTAR":-3.877514e-6,"MEAN_MOTION_DOT":-3.69e-6,"MEAN_MOTION_DDOT":0},{"OBJECT_NAME":"USA 15","OBJECT_ID":"1986-014A","EPOCH":"2026-03-09T16:19:19.890048","MEAN_MOTION":14.12399541,"ECCENTRICITY":0.06767877,"INCLINATION":63.29,"RA_OF_ASC_NODE":184.3044,"ARG_OF_PERICENTER":111.2434,"MEAN_ANOMALY":256.2258,"EPHEMERIS_TYPE":0,"CLASSIFICATION_TYPE":"U","NORAD_CAT_ID":16591,"ELEMENT_SET_NO":999,"REV_AT_EPOCH":9386,"BSTAR":0.00091695778,"MEAN_MOTION_DOT":0.00017871,"MEAN_MOTION_DDOT":0}]
